[
    {
        "OBJECT_NAME": "GPS BIIF-10 (PRN 08)",
        "OBJECT_ID": "2015-033A",
        "EPOCH": "2025-11-17T07:45:36.086976",
        "MEAN_MOTION": 2.00566934,
        "ECCENTRICITY": 0.01093856,
        "INCLINATION": 54.1529,
        "RA_OF_ASC_NODE": 275.8183,
        "ARG_OF_PERICENTER": 26.2025,
        "MEAN_ANOMALY": 334.3247,
        "EPHEMERIS_TYPE": 0,
        "CLASSIFICATION_TYPE": "U",
        "NORAD_CAT_ID": 40730,
        "ELEMENT_SET_NO": 999,
        "REV_AT_EPOCH": 7574,
        "BSTAR": 0,
        "MEAN_MOTION_DOT": -7.0e-7,
        "MEAN_MOTION_DDOT": 0
    },
    {
        "OBJECT_NAME": "BEIDOU-3S M2S (C58)",
        "OBJECT_ID": "2015-037A",
        "EPOCH": "2025-11-17T18:20:30.325632",
        "MEAN_MOTION": 1.8622932,
        "ECCENTRICITY": 0.001275,
        "INCLINATION": 55.0607,
        "RA_OF_ASC_NODE": 309.321,
        "ARG_OF_PERICENTER": 264.6664,
        "MEAN_ANOMALY": 95.1837,
        "EPHEMERIS_TYPE": 0,
        "CLASSIFICATION_TYPE": "U",
        "NORAD_CAT_ID": 40748,
        "ELEMENT_SET_NO": 999,
        "REV_AT_EPOCH": 7018,
        "BSTAR": 0,
        "MEAN_MOTION_DOT": -8.2e-7,
        "MEAN_MOTION_DDOT": 0
    },
    {
        "OBJECT_NAME": "BEIDOU-3S M1S (C57)",
        "OBJECT_ID": "2015-037B",
        "EPOCH": "2025-11-14T05:44:54.692160",
        "MEAN_MOTION": 1.86253941,
        "ECCENTRICITY": 0.00030914,
        "INCLINATION": 55.0603,
        "RA_OF_ASC_NODE": 309.4319,
        "ARG_OF_PERICENTER": 352.8503,
        "MEAN_ANOMALY": 7.1494,
        "EPHEMERIS_TYPE": 0,
        "CLASSIFICATION_TYPE": "U",
        "NORAD_CAT_ID": 40749,
        "ELEMENT_SET_NO": 999,
        "REV_AT_EPOCH": 7012,
        "BSTAR": 0,
        "MEAN_MOTION_DOT": -7.0e-7,
        "MEAN_MOTION_DDOT": 0
    },
    {
        "OBJECT_NAME": "GSAT0205 (GALILEO 9)",
        "OBJECT_ID": "2015-045A",
        "EPOCH": "2025-11-16T21:26:03.363072",
        "MEAN_MOTION": 1.70472998,
        "ECCENTRICITY": 0.0005509,
        "INCLINATION": 55.013,
        "RA_OF_ASC_NODE": 227.4724,
        "ARG_OF_PERICENTER": 34.8562,
        "MEAN_ANOMALY": 325.2238,
        "EPHEMERIS_TYPE": 0,
        "CLASSIFICATION_TYPE": "U",
        "NORAD_CAT_ID": 40889,
        "ELEMENT_SET_NO": 999,
        "REV_AT_EPOCH": 6339,
        "BSTAR": 0,
        "MEAN_MOTION_DOT": -1.2e-7,
        "MEAN_MOTION_DDOT": 0
    },
    {
        "OBJECT_NAME": "GSAT0206 (GALILEO 10)",
        "OBJECT_ID": "2015-045B",
        "EPOCH": "2025-11-16T12:39:05.907744",
        "MEAN_MOTION": 1.70473027,
        "ECCENTRICITY": 0.00033546,
        "INCLINATION": 55.0123,
        "RA_OF_ASC_NODE": 227.4776,
        "ARG_OF_PERICENTER": 26.6868,
        "MEAN_ANOMALY": 333.3722,
        "EPHEMERIS_TYPE": 0,
        "CLASSIFICATION_TYPE": "U",
        "NORAD_CAT_ID": 40890,
        "ELEMENT_SET_NO": 999,
        "REV_AT_EPOCH": 6341,
        "BSTAR": 0,
        "MEAN_MOTION_DOT": -1.5e-7,
        "MEAN_MOTION_DDOT": 0
    },
    {
        "OBJECT_NAME": "BEIDOU-3S IGSO-2S (C56)",
        "OBJECT_ID": "2015-053A",
        "EPOCH": "2025-11-17T19:20:12.058368",
        "MEAN_MOTION": 1.00276148,
        "ECCENTRICITY": 0.0060927,
        "INCLINATION": 49.5524,
        "RA_OF_ASC_NODE": 261.3011,
        "ARG_OF_PERICENTER": 189.3879,
        "MEAN_ANOMALY": 352.6144,
        "EPHEMERIS_TYPE": 0,
        "CLASSIFICATION_TYPE": "U",
        "NORAD_CAT_ID": 40938,
        "ELEMENT_SET_NO": 999,
        "REV_AT_EPOCH": 3723,
        "BSTAR": 0,
        "MEAN_MOTION_DOT": -1.69e-6,
        "MEAN_MOTION_DDOT": 0
    },
    {
        "OBJECT_NAME": "GPS BIIF-11 (PRN 10)",
        "OBJECT_ID": "2015-062A",
        "EPOCH": "2025-11-17T09:10:54.888672",
        "MEAN_MOTION": 2.00567181,
        "ECCENTRICITY": 0.01100104,
        "INCLINATION": 56.8143,
        "RA_OF_ASC_NODE": 38.9832,
        "ARG_OF_PERICENTER": 229.2847,
        "MEAN_ANOMALY": 129.7853,
        "EPHEMERIS_TYPE": 0,
        "CLASSIFICATION_TYPE": "U",
        "NORAD_CAT_ID": 41019,
        "ELEMENT_SET_NO": 999,
        "REV_AT_EPOCH": 7358,
        "BSTAR": 0,
        "MEAN_MOTION_DOT": -9.8e-7,
        "MEAN_MOTION_DDOT": 0
    },
    {
        "OBJECT_NAME": "GSAT-15 (GAGAN/PRN 139)",
        "OBJECT_ID": "2015-065A",
        "EPOCH": "2025-11-17T15:38:58.962912",
        "MEAN_MOTION": 1.00272213,
        "ECCENTRICITY": 0.00033221,
        "INCLINATION": 0.0231,
        "RA_OF_ASC_NODE": 263.7691,
        "ARG_OF_PERICENTER": 306.7861,
        "MEAN_ANOMALY": 174.6521,
        "EPHEMERIS_TYPE": 0,
        "CLASSIFICATION_TYPE": "U",
        "NORAD_CAT_ID": 41028,
        "ELEMENT_SET_NO": 999,
        "REV_AT_EPOCH": 3667,
        "BSTAR": 0,
        "MEAN_MOTION_DOT": -2.42e-6,
        "MEAN_MOTION_DDOT": 0
    },
    {
        "OBJECT_NAME": "GSAT0209 (GALILEO 12)",
        "OBJECT_ID": "2015-079A",
        "EPOCH": "2025-11-17T20:50:52.783008",
        "MEAN_MOTION": 1.70474436,
        "ECCENTRICITY": 0.0002364,
        "INCLINATION": 55.6976,
        "RA_OF_ASC_NODE": 107.0635,
        "ARG_OF_PERICENTER": 5.6767,
        "MEAN_ANOMALY": 354.2988,
        "EPHEMERIS_TYPE": 0,
        "CLASSIFICATION_TYPE": "U",
        "NORAD_CAT_ID": 41174,
        "ELEMENT_SET_NO": 999,
        "REV_AT_EPOCH": 6117,
        "BSTAR": 0,
        "MEAN_MOTION_DOT": 3.1e-7,
        "MEAN_MOTION_DDOT": 0
    },
    {
        "OBJECT_NAME": "GSAT0208 (GALILEO 11)",
        "OBJECT_ID": "2015-079B",
        "EPOCH": "2025-11-16T21:58:32.341440",
        "MEAN_MOTION": 1.70474199,
        "ECCENTRICITY": 0.00019468,
        "INCLINATION": 55.6959,
        "RA_OF_ASC_NODE": 107.0868,
        "ARG_OF_PERICENTER": 19.1445,
        "MEAN_ANOMALY": 340.8405,
        "EPHEMERIS_TYPE": 0,
        "CLASSIFICATION_TYPE": "U",
        "NORAD_CAT_ID": 41175,
        "ELEMENT_SET_NO": 999,
        "REV_AT_EPOCH": 6157,
        "BSTAR": 0,
        "MEAN_MOTION_DOT": 3.4e-7,
        "MEAN_MOTION_DDOT": 0
    },
    {
        "OBJECT_NAME": "IRNSS-1E",
        "OBJECT_ID": "2016-003A",
        "EPOCH": "2025-11-13T17:10:21.937152",
        "MEAN_MOTION": 1.00273438,
        "ECCENTRICITY": 0.00229216,
        "INCLINATION": 32.7622,
        "RA_OF_ASC_NODE": 62.8752,
        "ARG_OF_PERICENTER": 184.512,
        "MEAN_ANOMALY": 175.0849,
        "EPHEMERIS_TYPE": 0,
        "CLASSIFICATION_TYPE": "U",
        "NORAD_CAT_ID": 41241,
        "ELEMENT_SET_NO": 999,
        "REV_AT_EPOCH": 3591,
        "BSTAR": 0,
        "MEAN_MOTION_DOT": -2.95e-6,
        "MEAN_MOTION_DDOT": 0
    },
    {
        "OBJECT_NAME": "GPS BIIF-12 (PRN 32)",
        "OBJECT_ID": "2016-007A",
        "EPOCH": "2025-11-17T11:09:02.093184",
        "MEAN_MOTION": 2.00562098,
        "ECCENTRICITY": 0.0090902,
        "INCLINATION": 55.3915,
        "RA_OF_ASC_NODE": 97.86,
        "ARG_OF_PERICENTER": 243.0056,
        "MEAN_ANOMALY": 116.0429,
        "EPHEMERIS_TYPE": 0,
        "CLASSIFICATION_TYPE": "U",
        "NORAD_CAT_ID": 41328,
        "ELEMENT_SET_NO": 999,
        "REV_AT_EPOCH": 7159,
        "BSTAR": 0,
        "MEAN_MOTION_DOT": 4.0e-8,
        "MEAN_MOTION_DDOT": 0
    },
    {
        "OBJECT_NAME": "COSMOS 2514 (751)",
        "OBJECT_ID": "2016-008A",
        "EPOCH": "2025-11-18T02:49:56.343072",
        "MEAN_MOTION": 2.1310269,
        "ECCENTRICITY": 0.0012939,
        "INCLINATION": 65.1475,
        "RA_OF_ASC_NODE": 320.2475,
        "ARG_OF_PERICENTER": 219.029,
        "MEAN_ANOMALY": 140.8977,
        "EPHEMERIS_TYPE": 0,
        "CLASSIFICATION_TYPE": "U",
        "NORAD_CAT_ID": 41330,
        "ELEMENT_SET_NO": 999,
        "REV_AT_EPOCH": 7612,
        "BSTAR": 0,
        "MEAN_MOTION_DOT": -4.9e-7,
        "MEAN_MOTION_DDOT": 0
    }
]